{
  "norad_id": 57381,
  "name": "STARLINK-6371",
  "history": [
    {
      "epoch": "2026-03-28T13:08:04.412256Z",
      "apogee_km": 486.3916780276104,
      "perigee_km": 484.6153678602723,
      "latitude_deg": -1.111044045373872e-05,
      "longitude_deg": 94.03575079432892,
      "height_km": 485.314993336227,
      "semi_major_axis_km": 6863.640522943941,
      "eccentricity": 0.0001294,
      "inclination_deg": 43.0021,
      "raan_deg": 117.0203,
      "arg_perigee_deg": 267.7708,
      "mean_anomaly_deg": 92.2995,
      "mean_motion_rev_day": 15.26760683
    },
    {
      "epoch": "2026-03-29T01:41:43.846368Z",
      "apogee_km": 486.35696742309756,
      "perigee_km": 484.6575291072277,
      "latitude_deg": -6.301668060347908e-06,
      "longitude_deg": -97.84681306565273,
      "height_km": 485.41190195685317,
      "semi_major_axis_km": 6863.644248265163,
      "eccentricity": 0.0001238,
      "inclination_deg": 43.0016,
      "raan_deg": 114.0679,
      "arg_perigee_deg": 261.3458,
      "mean_anomaly_deg": 98.7253,
      "mean_motion_rev_day": 15.2675944
    }
  ]
}